start=new Date('2021-12-16T00:00:00.000Z').valueOf();
sats=[{"EPHEMERIS_TYPE":"0","CLASSIFICATION_TYPE":"U","INCLINATION":"53.0562","MEAN_MOTION_DOT":"-0.00000250","PERIOD":"95.592","NORAD_CAT_ID":"47919","OBJECT_NAME":"STARLINK-2405","CENTER_NAME":"EARTH","REF_FRAME":"TEME","OBJECT_TYPE":"PAYLOAD","RCS_SIZE":"LARGE","EPOCH":"2021-12-15T11:02:35.931840","LAUNCH_DATE":"2021-03-14","COUNTRY_CODE":"US","FILE":"3241011","BSTAR":"0.00000213590000","GP_ID":"191763581","OBJECT_ID":"2021-021BM","ELEMENT_SET_NO":"999","TLE_LINE2":"2 47919  53.0562  18.4118 0001342  71.1672 288.9463 15.06395651 43132","REV_AT_EPOCH":"4313","TIME_SYSTEM":"UTC","RA_OF_ASC_NODE":"18.4118","PERIAPSIS":"546.298","APOAPSIS":"548.156","MEAN_MOTION":"15.06395651","TLE_LINE1":"1 47919U 21021BM  21349.46013810 -.00000250  00000-0  21359-5 0  9991","MEAN_ANOMALY":"288.9463","MEAN_MOTION_DDOT":"0.0000000000000","ECCENTRICITY":"0.00013420","DECAY_DATE":null,"MEAN_ELEMENT_THEORY":"SGP4","ARG_OF_PERICENTER":"71.1672","SEMIMAJOR_AXIS":"6925.362","SITE":"AFETR"},{"GP_ID":"191797671","LAUNCH_DATE":"2021-03-24","EPOCH":"2021-12-15T14:26:17.096928","FILE":"3241542","COUNTRY_CODE":"US","BSTAR":"-0.00000639260000","RCS_SIZE":"LARGE","OBJECT_TYPE":"PAYLOAD","REF_FRAME":"TEME","CENTER_NAME":"EARTH","INCLINATION":"53.0560","OBJECT_NAME":"STARLINK-2087","PERIOD":"95.592","NORAD_CAT_ID":"47977","MEAN_MOTION_DOT":"-0.00000377","EPHEMERIS_TYPE":"0","CLASSIFICATION_TYPE":"U","SEMIMAJOR_AXIS":"6925.337","SITE":"AFETR","ARG_OF_PERICENTER":"76.0296","MEAN_MOTION_DDOT":"0.0000000000000","MEAN_ELEMENT_THEORY":"SGP4","DECAY_DATE":null,"ECCENTRICITY":"0.00010760","APOAPSIS":"547.947","MEAN_ANOMALY":"284.0812","TLE_LINE1":"1 47977U 21024A   21349.60158677 -.00000377  00000-0 -63926-5 0  9992","MEAN_MOTION":"15.06403915","RA_OF_ASC_NODE":"62.7782","TIME_SYSTEM":"UTC","PERIAPSIS":"546.456","REV_AT_EPOCH":"4182","OBJECT_ID":"2021-024A","TLE_LINE2":"2 47977  53.0560  62.7782 0001076  76.0296 284.0812 15.06403915 41825","ELEMENT_SET_NO":"999"},{"OBJECT_TYPE":"PAYLOAD","RCS_SIZE":"LARGE","FILE":"3241011","COUNTRY_CODE":"US","BSTAR":"0.00001326900000","EPOCH":"2021-12-15T11:45:43.458048","LAUNCH_DATE":"2021-03-24","GP_ID":"191763338","CLASSIFICATION_TYPE":"U","EPHEMERIS_TYPE":"0","NORAD_CAT_ID":"47978","PERIOD":"95.592","MEAN_MOTION_DOT":"-0.00000084","OBJECT_NAME":"STARLINK-1647","INCLINATION":"53.0547","CENTER_NAME":"EARTH","REF_FRAME":"TEME","ECCENTRICITY":"0.00013720","DECAY_DATE":null,"MEAN_ELEMENT_THEORY":"SGP4","MEAN_MOTION_DDOT":"0.0000000000000","ARG_OF_PERICENTER":"86.7298","SEMIMAJOR_AXIS":"6925.357","SITE":"AFETR","TLE_LINE2":"2 47978  53.0547  73.2918 0001372  86.7298 273.3848 15.06397244 41667","ELEMENT_SET_NO":"999","OBJECT_ID":"2021-024B","REV_AT_EPOCH":"4166","PERIAPSIS":"546.272","RA_OF_ASC_NODE":"73.2918","TIME_SYSTEM":"UTC","MEAN_MOTION":"15.06397244","TLE_LINE1":"1 47978U 21024B   21349.49008632 -.00000084  00000-0  13269-4 0  9993","MEAN_ANOMALY":"273.3848","APOAPSIS":"548.172"},{"DECAY_DATE":null,"ECCENTRICITY":"0.00013780","MEAN_ELEMENT_THEORY":"SGP4","MEAN_MOTION_DDOT":"0.0000000000000","ARG_OF_PERICENTER":"81.7694","SEMIMAJOR_AXIS":"6932.957","SITE":"AFETR","ELEMENT_SET_NO":"999","TLE_LINE2":"2 47979  53.0520   5.7295 0001378  81.7694  39.5139 15.03920790  3587","OBJECT_ID":"2021-024C","REV_AT_EPOCH":"358","PERIAPSIS":"553.867","RA_OF_ASC_NODE":"5.7295","TIME_SYSTEM":"UTC","MEAN_MOTION":"15.03920790","TLE_LINE1":"1 47979U 21024C   21349.91668981  .00032719  00000-0  23565-2 0  9997","MEAN_ANOMALY":"39.5139","APOAPSIS":"555.778","OBJECT_TYPE":"PAYLOAD","RCS_SIZE":"LARGE","FILE":"3241542","BSTAR":"0.00235650000000","COUNTRY_CODE":"US","EPOCH":"2021-12-15T22:00:01.999584","LAUNCH_DATE":"2021-03-24","GP_ID":"191799172","CLASSIFICATION_TYPE":"U","EPHEMERIS_TYPE":"0","PERIOD":"95.750","NORAD_CAT_ID":"47979","MEAN_MOTION_DOT":"0.00032719","OBJECT_NAME":"STARLINK-2325","INCLINATION":"53.0520","CENTER_NAME":"EARTH","REF_FRAME":"TEME"},{"INCLINATION":"53.0544","OBJECT_NAME":"STARLINK-2312","PERIOD":"95.644","MEAN_MOTION_DOT":"-0.00003411","NORAD_CAT_ID":"47980","EPHEMERIS_TYPE":"0","CLASSIFICATION_TYPE":"U","REF_FRAME":"TEME","CENTER_NAME":"EARTH","LAUNCH_DATE":"2021-03-24","EPOCH":"2021-12-15T22:00:01.999584","COUNTRY_CODE":"US","FILE":"3241542","BSTAR":"-0.00021506000000","RCS_SIZE":"LARGE","OBJECT_TYPE":"PAYLOAD","GP_ID":"191798923","REV_AT_EPOCH":"358","OBJECT_ID":"2021-024D","ELEMENT_SET_NO":"999","TLE_LINE2":"2 47980  53.0544 346.1738 0001868  48.6380 139.6926 15.05580795  3582","APOAPSIS":"551.020","TLE_LINE1":"1 47980U 21024D   21349.91668981 -.00003411  00000-0 -21506-3 0  9992","MEAN_ANOMALY":"139.6926","MEAN_MOTION":"15.05580795","RA_OF_ASC_NODE":"346.1738","TIME_SYSTEM":"UTC","PERIAPSIS":"548.431","ARG_OF_PERICENTER":"48.6380","MEAN_MOTION_DDOT":"0.0000000000000","MEAN_ELEMENT_THEORY":"SGP4","ECCENTRICITY":"0.00018680","DECAY_DATE":null,"SITE":"AFETR","SEMIMAJOR_AXIS":"6927.860"},{"REV_AT_EPOCH":"4168","OBJECT_ID":"2021-024E","TLE_LINE2":"2 47981  53.0564  72.7554 0001519  93.1979 266.9184 15.06404481 41686","ELEMENT_SET_NO":"999","APOAPSIS":"548.252","MEAN_ANOMALY":"266.9184","TLE_LINE1":"1 47981U 21024E   21349.61171454  .00001163  00000-0  96961-4 0  9992","MEAN_MOTION":"15.06404481","TIME_SYSTEM":"UTC","RA_OF_ASC_NODE":"72.7554","PERIAPSIS":"546.148","ARG_OF_PERICENTER":"93.1979","MEAN_MOTION_DDOT":"0.0000000000000","MEAN_ELEMENT_THEORY":"SGP4","DECAY_DATE":null,"ECCENTRICITY":"0.00015190","SEMIMAJOR_AXIS":"6925.335","SITE":"AFETR","INCLINATION":"53.0564","OBJECT_NAME":"STARLINK-2303","PERIOD":"95.592","NORAD_CAT_ID":"47981","MEAN_MOTION_DOT":"0.00001163","EPHEMERIS_TYPE":"0","CLASSIFICATION_TYPE":"U","REF_FRAME":"TEME","CENTER_NAME":"EARTH","LAUNCH_DATE":"2021-03-24","EPOCH":"2021-12-15T14:40:52.136256","COUNTRY_CODE":"US","FILE":"3241542","BSTAR":"0.00009696100000","RCS_SIZE":"LARGE","OBJECT_TYPE":"PAYLOAD","GP_ID":"191798171"},{"SEMIMAJOR_AXIS":"6930.367","SITE":"AFETR","ARG_OF_PERICENTER":"52.1413","MEAN_MOTION_DDOT":"0.0000000000000","ECCENTRICITY":"0.00022330","DECAY_DATE":null,"MEAN_ELEMENT_THEORY":"SGP4","APOAPSIS":"553.780","MEAN_MOTION":"15.04764062","TLE_LINE1":"1 47982U 21024F   21349.91668981  .00001362  00000-0  11501-3 0  9999","MEAN_ANOMALY":"9.6113","TIME_SYSTEM":"UTC","RA_OF_ASC_NODE":"1.1671","PERIAPSIS":"550.684","REV_AT_EPOCH":"359","OBJECT_ID":"2021-024F","ELEMENT_SET_NO":"999","TLE_LINE2":"2 47982  53.0544   1.1671 0002233  52.1413   9.6113 15.04764062  3597","GP_ID":"191798421","EPOCH":"2021-12-15T22:00:01.999584","LAUNCH_DATE":"2021-03-24","FILE":"3241542","BSTAR":"0.00011501000000","COUNTRY_CODE":"US","OBJECT_TYPE":"PAYLOAD","RCS_SIZE":"LARGE","REF_FRAME":"TEME","CENTER_NAME":"EARTH","INCLINATION":"53.0544","PERIOD":"95.696","MEAN_MOTION_DOT":"0.00001362","NORAD_CAT_ID":"47982","OBJECT_NAME":"STARLINK-2317","EPHEMERIS_TYPE":"0","CLASSIFICATION_TYPE":"U"},{"REF_FRAME":"TEME","CENTER_NAME":"EARTH","OBJECT_NAME":"STARLINK-2289","MEAN_MOTION_DOT":"-0.00038459","PERIOD":"90.510","NORAD_CAT_ID":"47983","INCLINATION":"53.0461","CLASSIFICATION_TYPE":"U","EPHEMERIS_TYPE":"0","GP_ID":"191798673","BSTAR":"-0.00010830000000","FILE":"3241542","COUNTRY_CODE":"US","LAUNCH_DATE":"2021-03-24","EPOCH":"2021-12-15T22:00:01.999584","RCS_SIZE":"LARGE","OBJECT_TYPE":"PAYLOAD","TLE_LINE1":"1 47983U 21024G   21349.91668981 -.00038459  11477-4 -10830-3 0  9997","MEAN_ANOMALY":"131.1924","MEAN_MOTION":"15.90983932","APOAPSIS":"300.416","PERIAPSIS":"298.645","RA_OF_ASC_NODE":"317.2104","TIME_SYSTEM":"UTC","REV_AT_EPOCH":"371","TLE_LINE2":"2 47983  53.0461 317.2104 0001326  65.2551 131.1924 15.90983932  3717","ELEMENT_SET_NO":"999","OBJECT_ID":"2021-024G","SEMIMAJOR_AXIS":"6677.665","SITE":"AFETR","ARG_OF_PERICENTER":"65.2551","MEAN_ELEMENT_THEORY":"SGP4","ECCENTRICITY":"0.00013260","DECAY_DATE":null,"MEAN_MOTION_DDOT":"0.0000114770000"},{"PERIAPSIS":"307.788","TIME_SYSTEM":"UTC","RA_OF_ASC_NODE":"320.4350","MEAN_MOTION":"15.87751933","MEAN_ANOMALY":"298.9727","TLE_LINE1":"1 47984U 21024H   21349.91668981  .00355559  00000-0  12481-2 0  9998","APOAPSIS":"309.390","ELEMENT_SET_NO":"999","TLE_LINE2":"2 47984  53.0546 320.4350 0001198 115.0387 298.9727 15.87751933  3699","OBJECT_ID":"2021-024H","REV_AT_EPOCH":"369","SITE":"AFETR","SEMIMAJOR_AXIS":"6686.724","ECCENTRICITY":"0.00011980","DECAY_DATE":null,"MEAN_ELEMENT_THEORY":"SGP4","MEAN_MOTION_DDOT":"0.0000000000000","ARG_OF_PERICENTER":"115.0387","CENTER_NAME":"EARTH","REF_FRAME":"TEME","CLASSIFICATION_TYPE":"U","EPHEMERIS_TYPE":"0","PERIOD":"90.694","MEAN_MOTION_DOT":"0.00355559","NORAD_CAT_ID":"47984","OBJECT_NAME":"STARLINK-2316","INCLINATION":"53.0546","GP_ID":"191799423","OBJECT_TYPE":"PAYLOAD","RCS_SIZE":"LARGE","COUNTRY_CODE":"US","FILE":"3241542","BSTAR":"0.00124810000000","EPOCH":"2021-12-15T22:00:01.999584","LAUNCH_DATE":"2021-03-24"},{"MEAN_MOTION_DDOT":"0.0000000000000","DECAY_DATE":null,"ECCENTRICITY":"0.00017730","MEAN_ELEMENT_THEORY":"SGP4","ARG_OF_PERICENTER":"66.4866","SITE":"AFETR","SEMIMAJOR_AXIS":"6930.439","OBJECT_ID":"2021-024J","ELEMENT_SET_NO":"999","TLE_LINE2":"2 47985  53.0560   5.7950 0001773  66.4866 246.8907 15.04740684  3585","REV_AT_EPOCH":"358","TIME_SYSTEM":"UTC","RA_OF_ASC_NODE":"5.7950","PERIAPSIS":"551.075","APOAPSIS":"553.533","MEAN_MOTION":"15.04740684","TLE_LINE1":"1 47985U 21024J   21349.91668981  .00046343  00000-0  32513-2 0  9995","MEAN_ANOMALY":"246.8907","OBJECT_TYPE":"PAYLOAD","RCS_SIZE":"LARGE","EPOCH":"2021-12-15T22:00:01.999584","LAUNCH_DATE":"2021-03-24","BSTAR":"0.00325130000000","FILE":"3241542","COUNTRY_CODE":"US","GP_ID":"191797672","EPHEMERIS_TYPE":"0","CLASSIFICATION_TYPE":"U","INCLINATION":"53.0560","MEAN_MOTION_DOT":"0.00046343","PERIOD":"95.698","NORAD_CAT_ID":"47985","OBJECT_NAME":"STARLINK-2308","CENTER_NAME":"EARTH","REF_FRAME":"TEME"}];
